[{"OBJECT_NAME":"STARLINK-5667","OBJECT_ID":"2023-013G","EPOCH":"2026-03-09T22:00:01.999584","MEAN_MOTION":15.07492876,"ECCENTRICITY":0.0002117,"INCLINATION":43.0009,"RA_OF_ASC_NODE":286.0046,"ARG_OF_PERICENTER":269.9431,"MEAN_ANOMALY":104.8997,"EPHEMERIS_TYPE":0,"CLASSIFICATION_TYPE":"U","NORAD_CAT_ID":55337,"ELEMENT_SET_NO":999,"REV_AT_EPOCH":562,"BSTAR":0.002742591,"MEAN_MOTION_DOT":0.00042367,"MEAN_MOTION_DDOT":0},{"OBJECT_NAME":"FENGYUN 1C DEB","OBJECT_ID":"1999-025AYA","EPOCH":"2026-03-09T23:00:33.421824","MEAN_MOTION":14.97109165,"ECCENTRICITY":0.00762057,"INCLINATION":99.4912,"RA_OF_ASC_NODE":70.9716,"ARG_OF_PERICENTER":234.2891,"MEAN_ANOMALY":125.1218,"EPHEMERIS_TYPE":0,"CLASSIFICATION_TYPE":"U","NORAD_CAT_ID":30888,"ELEMENT_SET_NO":999,"REV_AT_EPOCH":1220,"BSTAR":0.0012389306,"MEAN_MOTION_DOT":0.0001511,"MEAN_MOTION_DDOT":0}]
